IRIDIUM 7 [-]           
1 24793U 97020B   24014.58135475  .00000666  00000+0  22699-3 0  9990
2 24793  86.3944  34.5483 0002359  85.5419 274.6046 14.35038110397351
IRIDIUM 5 [-]           
1 24795U 97020D   24014.35384221  .00004754  00000+0  46957-3 0  9997
2 24795  86.3956 321.5666 0125025 190.4923 169.3692 14.85944375408062
IRIDIUM 4 [-]           
1 24796U 97020E   24014.54767815  .00000690  00000+0  23125-3 0  9990
2 24796  86.3943  31.7855 0002372  91.4318 268.7151 14.35947884397879
IRIDIUM 914 [-]         
1 24836U 97030A   24014.57395969  .00000774  00000+0  24081-3 0  9991
2 24836  86.3916  41.8983 0003793 110.5477 249.6129 14.39780795532330
IRIDIUM 16 [-]          
1 24841U 97030F   24014.60135714  .00000771  00000+0  25029-3 0  9991
2 24841  86.4009  63.4759 0002134  36.6599 323.4745 14.37667560392322
IRIDIUM 911 [-]         
1 24842U 97030G   24014.61716353  .00000945  00000+0  25831-3 0  9991
2 24842  86.4434  62.7252 0015522  36.5782 323.6477 14.46236272399955
IRIDIUM 17 [-]          
1 24870U 97034B   24014.61214772  .00000890  00000+0  29522-3 0  9994
2 24870  86.3950  93.1292 0000452  89.0384 271.0865 14.36764289388955
IRIDIUM 920 [-]         
1 24871U 97034C   24014.60311106  .00000788  00000+0  24149-3 0  9999
2 24871  86.3952  73.5613 0011522   6.4049 353.7296 14.40486356391757
